CAS-2T & KS-1Q          
1 41847U 16066G   20160.09159813  .00000061  00000-0  20465-4 0  9996
2 41847  98.6543 210.5120 0364522 256.7988  99.2300 14.38068411188072
NAYIF-1 (EO-88)         
1 42017U 17008BX  20160.24077413  .00001481  00000-0  59524-4 0  9990
2 42017  97.3601 227.9372 0006259  11.3232 348.8147 15.26481227184149
MAX VALIER SAT          
1 42778U 17036P   20160.27316380  .00000959  00000-0  44103-4 0  9993
2 42778  97.3053 214.1628 0013712  59.6659 300.5932 15.22609825164334
RADFXSAT (FOX-1B)       
1 43017U 17073E   20160.25611952  .00000667  00000-0  56384-4 0  9992
2 43017  97.7236  72.8470 0258543  80.3747 282.6570 14.78927116137800
FOX-1D (AO-92)          
1 43137U 18004AC  20160.16131708  .00001013  00000-0  44594-4 0  9992
2 43137  97.4460 231.3850 0010900  89.1987 271.0499 15.24111559133625
DIWATA-2B               
1 43678U 18084H   20160.48526870 -.00000033  00000-0  24502-5 0  9993
2 43678  97.8826 278.8884 0009347 199.5609 160.5275 14.91630276 87681
ES'HAIL 2               
1 43700U 18090A   20160.06716029  .00000135  00000-0  00000-0 0  9991
2 43700   0.0044  37.5257 0001532  57.4922 211.8480  1.00270396  5617
FOX-1CLIFF (AO-95)      
1 43770U 18099N   20159.66959479  .00000490  00000-0  50047-4 0  9993
2 43770  97.7059 231.2205 0013547 225.1886 134.8234 14.94983691 82455
ITASAT 1                
1 43786U 18099AE  20160.27098803  .00000487  00000-0  49359-4 0  9994
2 43786  97.7074 232.2243 0014366 216.5081 143.5161 14.95323967 82566
JY1SAT (JO-97)          
1 43803U 18099AX  20159.88515479  .00000723  00000-0  70348-4 0  9997
2 43803  97.7037 231.6660 0014172 217.8314 142.1912 14.95501752 82502
PSAT2 (NO-104)          
1 44354U 19036R   20159.03386136  .00005929  00000-0  83319-4 0  9999
2 44354  28.5318  89.0169 0364629 199.7433 158.8707 15.03380765 52256
BRICSAT2 (NO-103)       
1 44355U 19036S   20159.93820626  .00010032  00000-0  13754-3 0  9992
2 44355  28.5329  74.9041 0343829 222.7126 134.6254 15.08644071 52466
JAISAT-1                
1 44419U 19038F   20160.36107216  .00000759  00000-0  46784-4 0  9992
2 44419  97.5380 122.0637 0022090 157.8559 202.3631 15.12770496 51229
DUCHIFAT-3              
1 44854U 19089C   20160.36914781  .00000266  00000-0  27963-4 0  9995
2 44854  36.9658 152.0375 0009112 344.8811  15.1660 14.99063275 26934
RS-44 & BREEZE-KM R/B   
1 44909U 19096E   20160.52351423  .00000008  00000-0 -48155-5 0  9992
2 44909  82.5216   1.2500 0216365 247.2960 110.5141 12.79707826 21042
ORBITAL FACTORY 2 (OF-2)
1 45113U 19071C   20160.09898096  .00001665  00000-0  62410-4 0  9995
2 45113  51.6454  48.7364 0013388  26.6209 333.5458 15.33323397 19696
HUSKYSAT-1              
1 45119U 19071J   20160.40453830  .00001433  00000-0  54983-4 0  9998
2 45119  51.6450  47.0274 0012607  24.2654 335.8919 15.33545660 19732
